<?xml version="1.0" encoding="UTF-8"?>
<ndm xmlns:xsi="http://www.w3.org/2001/XMLSchema-instance" xsi:noNamespaceSchemaLocation="https://sanaregistry.org/r/ndmxml/ndmxml-1.0-master.xsd">
<omm id="CCSDS_OMM_VERS" version="2.0">
<header><CREATION_DATE/><ORIGINATOR/></header><body><segment><metadata><OBJECT_NAME>ICS-EF (ISS DEB)</OBJECT_NAME><OBJECT_ID>1998-067RJ</OBJECT_ID><CENTER_NAME>EARTH</CENTER_NAME><REF_FRAME>TEME</REF_FRAME><TIME_SYSTEM>UTC</TIME_SYSTEM><MEAN_ELEMENT_THEORY>SGP4</MEAN_ELEMENT_THEORY></metadata><data><meanElements><EPOCH>2020-12-15T00:27:17.628192</EPOCH><MEAN_MOTION>15.50862833</MEAN_MOTION><ECCENTRICITY>.0004815</ECCENTRICITY><INCLINATION>51.6396</INCLINATION><RA_OF_ASC_NODE>172.1356</RA_OF_ASC_NODE><ARG_OF_PERICENTER>316.7851</ARG_OF_PERICENTER><MEAN_ANOMALY>43.2760</MEAN_ANOMALY></meanElements><tleParameters><EPHEMERIS_TYPE>0</EPHEMERIS_TYPE><CLASSIFICATION_TYPE>U</CLASSIFICATION_TYPE><NORAD_CAT_ID>45265</NORAD_CAT_ID><ELEMENT_SET_NO>999</ELEMENT_SET_NO><REV_AT_EPOCH>4618</REV_AT_EPOCH><BSTAR>.67014E-4</BSTAR><MEAN_MOTION_DOT>.3485E-4</MEAN_MOTION_DOT><MEAN_MOTION_DDOT>0</MEAN_MOTION_DDOT></tleParameters></data></segment></body></omm>
<omm id="CCSDS_OMM_VERS" version="2.0">
<header><CREATION_DATE/><ORIGINATOR/></header><body><segment><metadata><OBJECT_NAME>PROGRESS-MS 14</OBJECT_NAME><OBJECT_ID>2020-026A</OBJECT_ID><CENTER_NAME>EARTH</CENTER_NAME><REF_FRAME>TEME</REF_FRAME><TIME_SYSTEM>UTC</TIME_SYSTEM><MEAN_ELEMENT_THEORY>SGP4</MEAN_ELEMENT_THEORY></metadata><data><meanElements><EPOCH>2020-12-13T13:11:59.194752</EPOCH><MEAN_MOTION>15.49180997</MEAN_MOTION><ECCENTRICITY>.0001783</ECCENTRICITY><INCLINATION>51.6445</INCLINATION><RA_OF_ASC_NODE>180.9789</RA_OF_ASC_NODE><ARG_OF_PERICENTER>128.1963</ARG_OF_PERICENTER><MEAN_ANOMALY>279.5916</MEAN_ANOMALY></meanElements><tleParameters><EPHEMERIS_TYPE>0</EPHEMERIS_TYPE><CLASSIFICATION_TYPE>U</CLASSIFICATION_TYPE><NORAD_CAT_ID>45595</NORAD_CAT_ID><ELEMENT_SET_NO>999</ELEMENT_SET_NO><REV_AT_EPOCH>3604</REV_AT_EPOCH><BSTAR>.25206E-4</BSTAR><MEAN_MOTION_DOT>.948E-5</MEAN_MOTION_DOT><MEAN_MOTION_DDOT>0</MEAN_MOTION_DDOT></tleParameters></data></segment></body></omm>
<omm id="CCSDS_OMM_VERS" version="2.0">
<header><CREATION_DATE/><ORIGINATOR/></header><body><segment><metadata><OBJECT_NAME>G-SAT</OBJECT_NAME><OBJECT_ID>1998-067RK</OBJECT_ID><CENTER_NAME>EARTH</CENTER_NAME><REF_FRAME>TEME</REF_FRAME><TIME_SYSTEM>UTC</TIME_SYSTEM><MEAN_ELEMENT_THEORY>SGP4</MEAN_ELEMENT_THEORY></metadata><data><meanElements><EPOCH>2020-12-14T23:20:07.910592</EPOCH><MEAN_MOTION>15.53375469</MEAN_MOTION><ECCENTRICITY>.0004046</ECCENTRICITY><INCLINATION>51.6390</INCLINATION><RA_OF_ASC_NODE>170.3484</RA_OF_ASC_NODE><ARG_OF_PERICENTER>12.8825</ARG_OF_PERICENTER><MEAN_ANOMALY>347.2268</MEAN_ANOMALY></meanElements><tleParameters><EPHEMERIS_TYPE>0</EPHEMERIS_TYPE><CLASSIFICATION_TYPE>U</CLASSIFICATION_TYPE><NORAD_CAT_ID>45597</NORAD_CAT_ID><ELEMENT_SET_NO>999</ELEMENT_SET_NO><REV_AT_EPOCH>3589</REV_AT_EPOCH><BSTAR>.15772E-3</BSTAR><MEAN_MOTION_DOT>.9697E-4</MEAN_MOTION_DOT><MEAN_MOTION_DDOT>0</MEAN_MOTION_DDOT></tleParameters></data></segment></body></omm>
<omm id="CCSDS_OMM_VERS" version="2.0">
<header><CREATION_DATE/><ORIGINATOR/></header><body><segment><metadata><OBJECT_NAME>QUETZAL-1</OBJECT_NAME><OBJECT_ID>1998-067RL</OBJECT_ID><CENTER_NAME>EARTH</CENTER_NAME><REF_FRAME>TEME</REF_FRAME><TIME_SYSTEM>UTC</TIME_SYSTEM><MEAN_ELEMENT_THEORY>SGP4</MEAN_ELEMENT_THEORY></metadata><data><meanElements><EPOCH>2020-12-14T19:05:08.532096</EPOCH><MEAN_MOTION>15.53692841</MEAN_MOTION><ECCENTRICITY>.0001989</ECCENTRICITY><INCLINATION>51.6386</INCLINATION><RA_OF_ASC_NODE>171.4125</RA_OF_ASC_NODE><ARG_OF_PERICENTER>51.2886</ARG_OF_PERICENTER><MEAN_ANOMALY>308.8282</MEAN_ANOMALY></meanElements><tleParameters><EPHEMERIS_TYPE>0</EPHEMERIS_TYPE><CLASSIFICATION_TYPE>U</CLASSIFICATION_TYPE><NORAD_CAT_ID>45598</NORAD_CAT_ID><ELEMENT_SET_NO>999</ELEMENT_SET_NO><REV_AT_EPOCH>3579</REV_AT_EPOCH><BSTAR>.20759E-3</BSTAR><MEAN_MOTION_DOT>.13071E-3</MEAN_MOTION_DOT><MEAN_MOTION_DDOT>0</MEAN_MOTION_DDOT></tleParameters></data></segment></body></omm>
<omm id="CCSDS_OMM_VERS" version="2.0">
<header><CREATION_DATE/><ORIGINATOR/></header><body><segment><metadata><OBJECT_NAME>RED-EYE 2 (MERLOT)</OBJECT_NAME><OBJECT_ID>1998-067RM</OBJECT_ID><CENTER_NAME>EARTH</CENTER_NAME><REF_FRAME>TEME</REF_FRAME><TIME_SYSTEM>UTC</TIME_SYSTEM><MEAN_ELEMENT_THEORY>SGP4</MEAN_ELEMENT_THEORY></metadata><data><meanElements><EPOCH>2020-12-14T00:13:48.769536</EPOCH><MEAN_MOTION>15.51169590</MEAN_MOTION><ECCENTRICITY>.0000754</ECCENTRICITY><INCLINATION>51.6403</INCLINATION><RA_OF_ASC_NODE>177.4062</RA_OF_ASC_NODE><ARG_OF_PERICENTER>9.2751</ARG_OF_PERICENTER><MEAN_ANOMALY>350.8252</MEAN_ANOMALY></meanElements><tleParameters><EPHEMERIS_TYPE>0</EPHEMERIS_TYPE><CLASSIFICATION_TYPE>U</CLASSIFICATION_TYPE><NORAD_CAT_ID>45800</NORAD_CAT_ID><ELEMENT_SET_NO>999</ELEMENT_SET_NO><REV_AT_EPOCH>2788</REV_AT_EPOCH><BSTAR>.743E-4</BSTAR><MEAN_MOTION_DOT>.3962E-4</MEAN_MOTION_DOT><MEAN_MOTION_DDOT>0</MEAN_MOTION_DDOT></tleParameters></data></segment></body></omm>
<omm id="CCSDS_OMM_VERS" version="2.0">
<header><CREATION_DATE/><ORIGINATOR/></header><body><segment><metadata><OBJECT_NAME>RED-EYE 3 (CABERNET)</OBJECT_NAME><OBJECT_ID>1998-067RN</OBJECT_ID><CENTER_NAME>EARTH</CENTER_NAME><REF_FRAME>TEME</REF_FRAME><TIME_SYSTEM>UTC</TIME_SYSTEM><MEAN_ELEMENT_THEORY>SGP4</MEAN_ELEMENT_THEORY></metadata><data><meanElements><EPOCH>2020-12-14T18:47:48.734016</EPOCH><MEAN_MOTION>15.51172081</MEAN_MOTION><ECCENTRICITY>.0000801</ECCENTRICITY><INCLINATION>51.6402</INCLINATION><RA_OF_ASC_NODE>173.5730</RA_OF_ASC_NODE><ARG_OF_PERICENTER>343.2207</ARG_OF_PERICENTER><MEAN_ANOMALY>16.8756</MEAN_ANOMALY></meanElements><tleParameters><EPHEMERIS_TYPE>0</EPHEMERIS_TYPE><CLASSIFICATION_TYPE>U</CLASSIFICATION_TYPE><NORAD_CAT_ID>45809</NORAD_CAT_ID><ELEMENT_SET_NO>999</ELEMENT_SET_NO><REV_AT_EPOCH>2698</REV_AT_EPOCH><BSTAR>.69036E-4</BSTAR><MEAN_MOTION_DOT>.3649E-4</MEAN_MOTION_DOT><MEAN_MOTION_DDOT>0</MEAN_MOTION_DDOT></tleParameters></data></segment></body></omm>
<omm id="CCSDS_OMM_VERS" version="2.0">
<header><CREATION_DATE/><ORIGINATOR/></header><body><segment><metadata><OBJECT_NAME>DEMI</OBJECT_NAME><OBJECT_ID>1998-067RP</OBJECT_ID><CENTER_NAME>EARTH</CENTER_NAME><REF_FRAME>TEME</REF_FRAME><TIME_SYSTEM>UTC</TIME_SYSTEM><MEAN_ELEMENT_THEORY>SGP4</MEAN_ELEMENT_THEORY></metadata><data><meanElements><EPOCH>2020-12-14T22:59:41.651808</EPOCH><MEAN_MOTION>15.53013601</MEAN_MOTION><ECCENTRICITY>.00021</ECCENTRICITY><INCLINATION>51.6397</INCLINATION><RA_OF_ASC_NODE>171.7485</RA_OF_ASC_NODE><ARG_OF_PERICENTER>237.2193</ARG_OF_PERICENTER><MEAN_ANOMALY>122.8595</MEAN_ANOMALY></meanElements><tleParameters><EPHEMERIS_TYPE>0</EPHEMERIS_TYPE><CLASSIFICATION_TYPE>U</CLASSIFICATION_TYPE><NORAD_CAT_ID>45916</NORAD_CAT_ID><ELEMENT_SET_NO>999</ELEMENT_SET_NO><REV_AT_EPOCH>2401</REV_AT_EPOCH><BSTAR>.14464E-3</BSTAR><MEAN_MOTION_DOT>.8733E-4</MEAN_MOTION_DOT><MEAN_MOTION_DDOT>0</MEAN_MOTION_DDOT></tleParameters></data></segment></body></omm>
<omm id="CCSDS_OMM_VERS" version="2.0">
<header><CREATION_DATE/><ORIGINATOR/></header><body><segment><metadata><OBJECT_NAME>TECHEDSAT 10</OBJECT_NAME><OBJECT_ID>1998-067RQ</OBJECT_ID><CENTER_NAME>EARTH</CENTER_NAME><REF_FRAME>TEME</REF_FRAME><TIME_SYSTEM>UTC</TIME_SYSTEM><MEAN_ELEMENT_THEORY>SGP4</MEAN_ELEMENT_THEORY></metadata><data><meanElements><EPOCH>2020-12-14T05:18:07.121664</EPOCH><MEAN_MOTION>15.63408356</MEAN_MOTION><ECCENTRICITY>.0005569</ECCENTRICITY><INCLINATION>51.6354</INCLINATION><RA_OF_ASC_NODE>171.3168</RA_OF_ASC_NODE><ARG_OF_PERICENTER>247.0880</ARG_OF_PERICENTER><MEAN_ANOMALY>112.9527</MEAN_ANOMALY></meanElements><tleParameters><EPHEMERIS_TYPE>0</EPHEMERIS_TYPE><CLASSIFICATION_TYPE>U</CLASSIFICATION_TYPE><NORAD_CAT_ID>45917</NORAD_CAT_ID><ELEMENT_SET_NO>999</ELEMENT_SET_NO><REV_AT_EPOCH>2390</REV_AT_EPOCH><BSTAR>.88549E-3</BSTAR><MEAN_MOTION_DOT>.8367E-3</MEAN_MOTION_DOT><MEAN_MOTION_DDOT>0</MEAN_MOTION_DDOT></tleParameters></data></segment></body></omm>

</ndm>
